storeNumber,branch_name,latitude,longitude,Address,city,countrySubdivisionCode,postalCode
33728-152607,camp davis 88 camp davis bangkok 10 10110 th,13.721278,100.566011,,Bangkok,10,10110
65502-299926,k village soi ari khlong tan 10 10110 th,13.720276,100.568893,,Khlong Tan,10,10110
30942-103786,big c rama 4 2929 rama 4 road klongtoey 10 10110 th,13.718723,100.568766,,Klongtoey,10,10110
60865-295235,thai bev quarter thai bev quarter 62 ratchadaphisek road bangkok 10,13.722632,100.55951,,Bangkok,10,10110
26661-239307,suanplern market suanplern market no 3654 unit s 101 bangkok 10 101,13.716921,100.571238,,Bangkok,10,10110
62607-297105,the parq the parq rama iv rd khlong toei bangkok 10 10110 t,13.721091,100.558466,,Bangkok,10,10110
29613-254365,emporium atelier 662 sukumvit road emporium atelier bangkok 10 1011,13.729502,100.569082,"662 Sukumvit Road,Klongtan,Klongtoey,Emporium Atelier",Bangkok,10,10110
59557-293767,med park hospital rama 4 rd khwaeng khlong toei khet khlo med park h,13.721774,100.556673,"Rama4 rd, Khwaeng Khlong Toei, Khet Khlo,Khlong Toei,MedPark Hospital",Khlong Toei,10,10110
33719-238366,emporium mall 662 emporium mall klongtoey 10 10110 th,13.729861,100.569096,"662,Sukumvit Road,Emporium Mall",Klongtoey,10,10110
33716-33481,emporium tower 662 emporium tower klongtoey 10 10110 th,13.730745,100.567852,"662,Sukumvit Road,Emporium Tower",Klongtoey,10,10110
61996-296502,emquartier sky garden 693 sukumvit road bangkok 10 10110 th,13.73112,100.569363,,Bangkok,10,10110
29616-254324,quartier cineart 621 sukhumvit rd quartier cineart bangkok 10 10110,13.731244,100.569077,"621 Sukhumvit Rd,Khwaeng Khlong Tan Nuea, Khet Watthana,,Quartier Cineart",Bangkok,10,10110
25169-239488,emquartier 693 sukhumvit rd klongtan nua emquartier bangkok 1,13.73143,100.569634,"693 Sukhumvit rd.,Klongtan-Nua,Wattana,Emquartier",Bangkok,10,10110
22137-218144,ubc 2 591 sukhumvit road north klongton bangkok 10 10110,13.73272,100.567479,,Bangkok,10,10110
57077-291086,rsu tower 571 sukhumvit road rsu tower wattana 10 10110 th,13.733153,100.566409,"571 Sukhumvit Road,,Klongton Nua,RSU Tower",Wattana,10,10110
29166-252506,cti tower ratchadapisek rd cti tower bangkok 10 10110 th,13.732735,100.560377,"Ratchadapisek Rd.,Klongtoey,CTI Tower",Bangkok,10,10110
57557-291686,t one t one building 8 soi sukhumvit 40 t one khlong toe,13.722393,100.580716,"T-One Building, 8Soi Sukhumvit40,,Sukhumvit rd, Phra Khanong,T-One",Khlong Toei,10,10110
33759-97834,the 49 terrace 49 the 49 terrace wattana 10 10110 th,13.731948,100.575968,,Wattana,10,10110
18525-188425,jasmine city jasmine city 2 soi prasarnmitr wattana 10 10110 th,13.735495,100.562919,,Wattana,10,10110
31587-117324,exchange tower 388 ground floor klongtoey 10 10110 th,13.735758,100.561595,,klongtoey,10,10110
54311-286586,mrt sukhumvit asok montri road khlong toei nuea mrt sukhumvit ba,13.736981,100.561239,"Asok Montri Road, Khlong Toei Nuea,,Watthana,MRT Sukhumvit",Bangkok,10,10110
62894-297464,bio house 55 bio house building sukhumvit 39 watthana 10 101,13.737147,100.571479,,Watthana,10,10110
33758-99602,samitivej hospital 133 samitivej hospital wattana 10 10110 th,13.734463,100.576651,,Wattana,10,10110
16147-153305,terminal 21 88 terminal 21 floor m terminal 21 building wattan,13.737813,100.560397,"88, Terminal 21, Floor M,Room no.M-410,411,412 - Soi Sukhumvit 19,Terminal 21 Building",Wattana,10,10110
32598-136501,time square time square building no 246 time square building k,13.737903,100.558757,"Time Square Building, No. 246,Sukhumvit road,,Time Square Building",Klong Toey,10,10110
31879-121687,bangkok mediplex mediplex building no 2 klongtoey 10 10250 th,13.719392,100.584794,,Klongtoey,10,10250
33717-30504,thonglor 231 wattana 10 10110 th,13.732531,100.582145,,Wattana,10,10110
30768-100362,siam future ekkamai 78 2 wattana 10 10110 th,13.726407,100.585238,,Wattana,10,10110
48723-262784,sukumvit hospital sukhumvit road prakanong nua sukhumvit hospital ba,13.71846,100.58697,"Sukhumvit road, Prakanong Nua,Wattana,Sukhumvit Hospital",Bangkok,10,10110
31110-102325,life center 1 q house lumpini building sathorn 10 10120 th,13.725719,100.544735,,Sathorn,10,10120
52793-283105,ocean tower 2 75 122 123 sukhumvit 19 klongtoey nua w bangkok 10,13.74269,100.561452,,Bangkok,10,10110
30919-103327,citi resort 79 unit s 104 1st floor citi resort wattana 10 101,13.742566,100.57217,,Wattana,10,10110
33727-76860,grammy 50 grammy place 50 grammy place wattana 10 10110 t,13.743168,100.562064,"50, Grammy Place,Sukhumvit 21 Road,50, Grammy Place",Wattana,10,10110
49880-271224,grand president hotel 11 14 16 soi sukhunvit 11 grand president hotel ba,13.742708,100.556665,"11,14,16 Soi Sukhunvit 11,Klongtoey-Nua, Wattana,Grand President Hotel",Bangkok,10,10110
8011-150274,srinakharinwirot university srinakharinwirot university no 114 srinakharinwiro,13.744816,100.566081,"Srinakharinwirot university No. 114,Soi Sukhumvit 23,Srinakharinwirot University",Klong-toey Nua,10,10110
24146-235709,sindhorn tower wireless road patumwan 10 10330 th,13.735589,100.54594,,Patumwan,10,10330
33756-98549,nana square 49 nana square wattana 10 10110 th,13.742449,100.552717,,Wattana,10,10110
56366-290242,baan kampu asoke 68 sukhumvit rd baan kampu asoke wattana 10 10110 ,13.745996,100.562923,"68, Sukhumvit Rd.,,Klongtoey-Nua,Baan Kampu Asoke",Wattana,10,10110
49881-270792,all season place 2 87 2 all season place wireless road bangkok 10 103,13.739146,100.547936,,Bangkok,10,10330
33763-98009,ploenchit center 2 ploenchit center ploenchit center klongtey 10 10,13.74211,100.551646,"2, Ploenchit Center,Sukumvit Road,Ploenchit Center",Klongtey,10,10110
33726-68941,u chu liang 968 u chu liang building bangrak 10 10500 th,13.727439,100.540556,"968,Rama 4 Road,U Chu Liang Building",Bangrak,10,10500
33729-79003,all season place 87 2 unit 102 1st floor patumwan 10 10330 th,13.739533,100.547545,,Patumwan,10,10330
52794-283109,the market place nanglinchee 27 nanglinchee rd chong nontri the market place na,13.710569,100.541942,"27 Nanglinchee Rd., Chong Nontri,Yannawa,The Market Place Nanglinchee",Bangkok,10,10120
53397-285571,summer hill 1106 sukhumvit rd phra khanong summer hill bangkok,13.714274,100.591734,"1106 Sukhumvit Rd, Phra Khanong,,Khlong Toei,,Summer Hill",Bangkok,10,10110
27193-246870,athenee tower 63 thanon witthayu athenee tower bangkok 10 10330 ,13.741634,100.548624,"63 Thanon Witthayu,Lumphini, Pathum Wan,Athenee Tower",Bangkok,10,10330
25152-239944,abdulrahim place 990 rama iv road silom bangrak bangkok 10 10500 th,13.727488,100.539154,,Bangkok,10,10500
32197-132684,ital thai tower 2034 ital thai tower 1 f retail hall ital thai tow,13.746979,100.573904,"2034 ItalThai Tower,1 F Retail Hall,New Petchburi Road,Ital Thai Tower",Huaykwang,10,10310
51605-278707,w district 1599 sukhumvit road prakanong nua w district bangk,13.714071,100.593108,"1599 Sukhumvit Road,Prakanong Nua,Wattana,W District",Bangkok,10,10110
52356-281373,mrt phetchaburi makkassan mrt phetchaburi bangkok 10 10310 th,13.74854,100.563138,"Makkassan,Ratchathewi,MRT Phetchaburi",Bangkok,10,10310
32430-133730,bumrungrad hospital 2 sky lobby 10th floor 33 sukhumvit 3 bumrungrad hos,13.745844,100.552773,"Sky Lobby 10th Floor 33 Sukhumvit 3,Sukhumvit Road,Bumrungrad Hospital -  Intl Clinic Bldg",Wattana,10,10110
1135-152684,siam square block l siam kitti building unit no 115 siam square soi 7 ,13.744039,100.535266,"Siam Kitti Building, unit no.115,G/F, Siam Square Soi 7, Rama I road,Siam Square soi 7",Pathumwan,10,10330
52818-283107,siam square one flagship 388 rama 1 road pathum wan sq 1 flagship bangkok 1,13.745406,100.534208,"388 Rama 1 Road, Pathum Wan,Pathum Wan,SQ1-Flagship",Bangkok,10,10330
19971-188453,siam square 1 rama 1 road patumwan bangkok 10 10330 th,13.745348,100.53397,,Bangkok,10,10330
30916-102880,siam paragon major 5th floor siam paragon patumwan 10 10330 th,13.746137,100.535462,,Patumwan,10,10330
30818-102733,siam paragon street level street level siam paragon patumwan 10 10330 th,13.746246,100.53419,,Patumwan,10,10330
30819-102783,siam paragon q concept 3rd floor siam paragon patumwan 10 10330 th,13.746549,100.534661,,Patumwan,10,10330
33708-197425,siam center 1st fl rama i rd siam center bangkok 10 10330 th,13.746134,100.533405,,Bangkok,10,10330
31627-114005,siam paragon 1st floor 991 common area siam paragon 1 floor pathumwan 10 ,13.746847,100.534658,,Pathumwan,10,10330
30675-101029,office central world 999 9 3rd floor office central world patumwan 10 1,13.745956,100.53834,,Patumwan,10,10330
57223-291275,central world zen 2nd fl 4 4 5 zen department store 2nd fl central world ze,13.745107,100.538845,"4,4/5, Zen Department Store 2nd fl,,Rajdamri Rd. , Phathum Wan,Central World-Zen 2nd Fl",Phathum Wan,10,10330
31108-104468,central world plaza third floor 4 4 1 4 2 shop a 305 3rd fl zone a pathumwan 10 10,13.745789,100.539585,,Pathumwan,10,10330
33740-256334,siam discovery 2nd fl 989 siam discovery siam tower bangkok 10 10330 th,13.746876,100.531191,,Bangkok,10,10330
57975-292126,central world 5th floor 4 4 1 4 2 shop no a 507 a 508 5th fl central world,13.746401,100.539652,"4, 4/1 ,4/2, Shop No. A507, A508, 5th Fl,Ratchadamri Road, Pathumwan,Central World 5th Floor",Pathumwan,10,10330
33721-44759,mahboonkrong 444 1st floor 1 a 06 07 mbk tower 1st floor 1 a 06,13.745208,100.530355,"444, 1st Floor  (1A06-07) MBK Tower,Prayathai Road,1st Floor, (1A06-07) MBK Tower",Patumwan,10,10120
33722-290042,world trade center 4 4 1 4 2 ratchadamri road bangkok 10 10330 th,13.74704,100.539585,,Bangkok,10,10330
47429-258009,gaysorn shopping centre 999 ploenchit road gaysorn shopping centre bangkok,13.74658,100.53994,"999 Ploenchit road,Lumpini Pathumwan,Gaysorn Shopping Centre",Bangkok,10,10330
31656-110434,mbk sf cinema city 444 b 1 room 7th floor mbk center patumwan 10 1033,13.744336,100.529668,,Patumwan,10,10330
53532-285712,gaysorn tower 999 ploenchit road lumphini gaysorn office bangkok,13.746006,100.540582,"999 Ploenchit Road Lumphini,Pathum Wan,Gaysorn Office",Bangkok,10,10330
33706-290534,amarin bangkok phloenchit road bangkok 10 10330 th,13.743925,100.541446,,Bangkok,10,10330
56020-289543,the market bangkok m 1 rajprasong rd the market bangkok m 1 pathum wan 10,13.747818,100.541085,"Rajprasong Rd.,,Lumphini,The Market Bangkok M1",Pathum Wan,10,10330
12984-155644,grand diamond plaza bangkok grand diamond plaza no 888 grand diamond plaza pha,13.750629,100.53851,"Grand Diamond Plaza, No. 888,Petchburi road,Grand Diamond Plaza",Phayathai,10,10400
29994-256184,platinum pratunam basement basement floor the platinum fashion mal platinum p,13.750057,100.53964,"Basement Floor. The Platinum Fashion Mal,Ratchathewi,Platinum Pratunam Basement",Bangkok,10,10400
15170-158244,shibuya 19 shibuya 19 no 919 shibuya 19 shopping mall ratchat,13.751062,100.538167,"Shibuya 19 No.919,New Petchaberee rd.,Shibuya 19 Shopping Mall",Ratchathewi,10,10400
21406-211888,platinum novotel pratunum 220 petchaburi road bangkok 10 10400 th,13.749769,100.540794,,Bangkok,10,10400
33730-78939,langsuan 39 patumwan 10 10330 th,13.741647,100.543544,,Patumwan,10,10330
61174-295560,the palladium world shopping unit g 001 g 002 1st floor bangkok 10 10400 th,13.750238,100.541353,,Bangkok,10,10400
19182-188449,mercury ville 540 mercury tower ploenchit rd lumpini bangkok 10 ,13.743642,100.544262,,Bangkok,10,10330
15220-158906,the 19th chidlom bangkok the 19th chidlom no 19 unit no 101 the 19th chidlo,13.746383,100.544375,"The 19th Chidlom, No. 19, Unit no. 101,Soi Chidlom, Ploenchit road,The 19th Chidlom Mall",Pathumwan,10,10330
63132-297747,spring tower spring tower 188 phayathai road thung bangkok 10 1,13.753604,100.531575,,Bangkok,10,10400
22334-218964,im park sam yan 272 soi chula 22 bangkok 10 10330 th,13.740078,100.524723,,Bangkok,10,10330
32356-152026,ideo phayathai 134 9 ideo building ideo phayathai condominium raj,13.755521,100.533006,"134/9, Ideo Building,Phayathai Road,IDEO Phayathai Condominium",Rajthewi,10,10400
32546-136497,chamchuri square chamchuri square no 317 pathumwan 10 10330 th,13.733005,100.530471,,Pathumwan,10,10330
57221-291276,samyan mitrtown 153 phayathai rd samyan mitrtown pathum wan 10 103,13.733512,100.528236,"153 Phayathai Rd.,,Wang Mai,Samyan Mitrtown",Pathum Wan,10,10330
54309-286585,bdms wellness clinic bdms wellness clinic 2 4 wireless road bdms royal ,13.747543,100.54803,"BDMS Wellness Clinic 2/4 Wireless Road,Pathumwan,,BDMS Royal Life Clinic",Bangkok,10,10330
28839-251146,vanit place 1126 1 new petchburi rd bangkok 10 10400 th,13.749133,100.547793,,Bangkok,10,10400
55429-289299,ashton chula silom rama 4 rd ashton chula silom bangrak 10 10500 th,13.731327,100.531242,"Rama4 rd.,,Sripraya,,Ashton ChulaSilom",Bangrak,10,10500
49376-268165,ideo q chula samyan ideo q chula samyan 660 rama 4 rd mahap ideo q chu,13.733341,100.526722,"Ideo Q Chula-Samyan 660 Rama4 Rd., Mahap,Bangrak,Ideo Q Chula-Samyan",Bangkok,10,10500
58813-293078,charn issara 1 tower 942 rama iv rd charn issara 1 tower bang rak 10 10,13.730013,100.53426,"942 Rama IV Rd,,Suriya Wong,Charn Issara 1 Tower",Bang Rak,10,10500
33705-12083,montien 1st floor montien plaza shopping mall montien plaz,13.7301,100.531754,"1st Floor Montien Plaza Shopping Mall,Near Suriwong Road,Montien Plaza Shopping Mall",Bangrak,10,10500
66848-301496,thaniya plaza 52 si lom suriyawong 10 10500 th,13.729205,100.533559,,Suriyawong,10,10500
18229-181873,silom complex silom complex 191 silom complex bangrak 10 10500 t,13.728684,100.534731,"Silom Complex, 191,Silom Road,Silom Complex",Bangrak,10,10500
58670-292928,nst one silom 281 19 23 nst one building nst one building bang r,13.728213,100.53389,"281/19-23, NST One Building,Silom Soi 1, Silom,NST One Building","Bang Rak,",10,10500
52819-283106,king power duty free downtown 8 rang nam alley khwaeng thanon phaya t king power,13.760025,100.538521,"8 Rang Nam Alley, Khwaeng Thanon Phaya T,Ratchathewi,King Power Duty Free Downtown",Bangkok,10,10400
33704-289295,bumrungrad hospital bangkok 1st floor 33 3 sukumvit soi 3 bangkok 10 10110 th,13.746454,100.552318,,Bangkok,10,10110
58485-292697,southeast insurance building 315 southeast insurance building silom acane build,13.727555,100.532077,"315, Southeast Insurance Building,Silom,Silom,Acane Building",Bang rak,10,10500
29925-255985,riverside plaza 257 6 charoennakorn rd riverside plaza bangkok 10 ,13.705535,100.490862,"257/6 Charoennakorn rd.,Sumre, Thonburi,Riverside Plaza",Bangkok,10,10600
20662-207465,phyathai 3 hospital 111 phet kasem road bangkok 10 10160 th,13.723098,100.464087,,Bangkok,10,10160
50912-276628,platform wongwianyai 99 ladya road somdejchaopraya platform wongwianyai,13.72692,100.495008,"99 Ladya Road,Somdejchaopraya,Klongsan,Platform Wongwianyai",Bangkok,10,10600
18782-188447,sena fest 542 542 1 2 klongsan 10 10600 th,13.719053,100.508041,,Klongsan,10,10600
20890-188466,metro west town 212 2 kalapapruek rd metro west town bangkok 10 10,13.709024,100.451828,"212/2 Kalapapruek rd.,Bangwha, Phasi Charoen,Metro West Town",Bangkok,10,10160
32095-301952,riverside garden charoenkrung wat phraya krai 10 10120 th,13.710784,100.509942,,Wat Phraya Krai,10,10120
25679-241664,yodpiman river walk 390 17 yodpiman the river walk bangkok 10 10200 th,13.741099,100.4954,"390/17,Baan Moh rd. Wang Burapabhirom Pranakor,Yodpiman The River Walk",Bangkok,10,10200
55578-289323,iconsiam 1st floor 299 charoen nakhon rd iconsiam khlong sa,13.726581,100.509519,"1st floor, 299, Charoen Nakhon Rd.,Khlong Ton Sai,,ICONSIAM",Khlong San,10,10600
59043-293243,home pro charansanitwong 2 soi charansanitwong 18 home pro charansanitwong ,13.743803,100.470593,", 2 Soi Charansanitwong 18,Ban Chang Lo,HomePro Charansanitwong",Bangkok Noi,10,10700
60549-294852,chao phraya riverfront at iconsiam iconsiam 7th fl 299 charoen nakhon ro iconsiam khl,13.72695,100.510318,"ICONSIAM, 7th fl., 299 Charoen Nakhon Ro,Khlong Ton Sai,ICONSIAM",Khlong San,10,10600
29615-254364,tree on 3 rama 3 rd tree on 3 bangkok 10 10120 th,13.690821,100.504093,"Rama 3 rd.,Bangklo, Bang Kho Laem,Tree on 3",Bangkok,10,10120
19002-191244,bangpakok 9 inter hosp bangpakok 9 international hospital 362 chomthong 1,13.681607,100.47466,,Chomthong,10,10150
21907-216326,robinson bangrak charoenkrung road bangrak bangkok 10 10500 th,13.719776,100.515394,,Bangkok,10,10500
59595-293827,river city bangkok river city bangkok 23 soi charoen krun sampantawon,13.730583,100.513154,,Sampantawong,10,10100
33743-95068,state tower 1055 state tower unit p 1 12 and p 1 13 bangrak 10,13.721954,100.517101,,Bangrak,10,10500
21631-213624,grand china hotel 215 yaowarat road samphantawong bangkok 10 10100 t,13.742654,100.506994,,Bangkok,10,10100
54589-286835,samitivej china town hospital 624 yaowaraj road samitivej china town bangkok 10 ,13.737928,100.512645,"624 Yaowaraj Road,Sumpuntawong,Samitivej China Town",Bangkok,10,10100
30703-98237,baan silom 663 building 2 no a 1 bangrak 10 10500 th,13.723281,100.520755,,Bangrak,10,10500
48465-263245,station one charoen krung rd pom prap pom prap satt station on,13.743095,100.50917,,Bangkok,10,10100
56616-290396,i am china town charoen krung rd im china town pom prap sattru pha,13.741501,100.511245,"Charoen Krung Rd,,Pom Prap,Im China Town",Pom Prap Sattru Phai,10,10100
21808-215325,vanilla moon chan rd yannawa bangkok 10 th,13.707014,100.522246,,Bangkok,10,
59638-293877,chic hostel 23 48 51 chic hostel soi sukorn thala chic hostel ,13.737617,100.51533,"23/48-51, Chic Hostel, Soi Sukorn, Thala,Thaladnoi,Chic Hostel",Samphanthawong,10,10100
24447-237864,tha maharaj 1 11 trok mahathat maharaj rd phranakorn 10 10200 ,13.754653,100.488969,,Phranakorn,10,10200
17339-169625,seacon square bangkae 607 seacon square bangkae phasi charoen 10 10160 t,13.712206,100.433784,,Phasi Charoen,10,10160
17595-183724,siriraj hospital 2 siriraj piyamaharajkarun bangkok noi 10 10700 th,13.759666,100.486124,,Bangkok Noi,10,10700
53429-285589,home pro rama 3 3369 1 rama iii bang khlo home pro rama 3 bangkok ,13.68701,100.51908,"3369/1 Rama III,  Bang Khlo,Bang Kho Laem,,Home Pro Rama 3",Bangkok,10,10120
55668-289580,home pro kalapapruek kanlapaphruek road home pro kalapapruek phasi char,13.69465,100.43618,"Kanlapaphruek Road,,Bang Wa,HomePro  Kalapapruek",Phasi Charoen,10,10160
18684-188446,sathorn square sathorn road sathorn bangkok 10 10120 th,13.722227,100.529461,,Bangkok,10,10120
33724-54539,empire tower 195 g floor empire tower empire tower sathorn 10 1,13.721229,100.53002,"195, G Floor Empire Tower,South Sathon Road,Empire Tower",Sathorn,10,10120
17561-183072,baan chart baan chart pranakorn 10 10200 th,13.760225,100.496296,,Pranakorn,10,10200
49375-268164,ideo mobi charan interchange 531 1 2 ideo mobi charan interchange ch ideo mobi ,13.762126,100.471981,"531/1-2 Ideo Mobi Charan-Interchange, Ch,Bangkoknoi,Ideo Mobi Charan-Interchange",Bangkok,10,10700
19218-294354,thonburi bamrungmuang hospital 611 pom prap sattru phai 10 10100 th,13.750304,100.514238,,Pom Prap Sattru Phai,10,10100
33714-23207,bangkok city 179 1st floor bkk city tower bkk city tower sathor,13.721562,100.531006,"179, 1st Floor  BKK City Tower,South  Sathorn Road,BKK City Tower",Sathorn,10,10120
56131-290068,sathorn thani 90 sathornthani building north sathorn sathorn tha,13.722464,100.530916,"90, Sathornthani Building, NorthSathorn,Silom,Sathorn Thani",Bangrak,10,10500
65471-299861,susco lan luang 8 soi lan luang 2 ban bat 10 10100 th,13.756171,100.507831,,Ban Bat,10,10100
24234-234344,sathorn city tower 175 sathorn tai rd sathorn 10 10120 th,13.721817,100.531844,,Sathorn,10,10120
24147-236047,united center 323 silom road bangrak 10 10500 th,13.727185,100.531406,,Bangrak,10,10500
27424-247528,the bright rama 2 15 9 rama 2 rd the bright rama 2 bangkok 10 10150 ,13.669299,100.451898,"15/9 Rama2 Rd,Thakarm, Bamgkhuntian,The Bright Rama 2",Bangkok,10,10150
33753-97640,belle park 315 601 2 yannawa 10 10120 th,13.700953,100.536448,,Yannawa,10,10120
9198-152606,paradise park bangkok paradise park shopping plaza no 61 paradise park p,13.687677,100.647394,"Paradise Park shopping plaza, No. 61,Unit 2C023, 2nd floor, Srinakharin road,Paradise Park",Prawet,10,10260
23755-233148,paradise place srinakharin bangkok 10 10260 th,13.689959,100.64753,,Bangkok,10,10260
33762-100218,seacon square 904 2nd floor seacon square prawet 10 10250 th,13.694032,100.648037,,Prawet,10,10250
49440-268886,little walk bangna 769 769 3 bangna trad bangna little walk bangna ba,13.667401,100.639179,"769-769/3 Bangna-Trad Bangna,Bang Na,Little Walk Bangna",Bangkok,10,10260
33710-13646,bangna 1093 2nd floor central city bangna central city ba,13.669273,100.634588,"1093, 2nd Floor Central City Bangna,Bangna-Trad Road Km.3,Central City Bangna",Bangna,10,10260
26228-243927,central bangna 1st floor 1093 g floor central city bangna bangna central ba,13.668544,100.63409,"1093, G Floor Central City Bangna Bangna,Bangna,Central Bangna Ground Floor",Bangkok,10,10260
27571-239306,at united bangna 8 88 moo 12 bangna trad road km 6 5 samut prakarn ,13.659851,100.661714,,Samut Prakarn,11,10540
26019-243024,sikarin hospital 4 29 moo 10 sinakharin rd bangna bangkok 10 10260 ,13.65477,100.645874,,Bangkok,10,10260
31071-103785,sf piyarom 3079 25 piyarom place prakanong 10 10260 th,13.686574,100.611331,,Prakanong,10,10260
51671-278945,thanya park 735 735 1 8 srinagarindra rd thanya park bangkok 1,13.725691,100.642698,"735,735 / 1-8 Srinagarindra Rd,,Suan Luang,Thanya Park",Bangkok,10,10250
57188-291257,la salle avenue 549 lasalle baring rd la salle avenue bangna 10 10,13.657194,100.623265,"549, Lasalle-Baring Rd,,Bangna,LaSalle Avenue",Bangna,10,10260
51674-278924,bitec bangna 88 bangna trad rd bitec bangna bangkok 10 10260 th,13.670446,100.609792,"88 Bangna Trad Rd.,Bangna,Bitec Bangna",Bangkok,10,10260
56493-290439,ideo sukhumvit 93 sukhumvit rd ideo sukhumvit 93 phra khanong 10 102,13.698402,100.604761,"Sukhumvit Rd.,Bang Chak,IDEO Sukhumvit 93",Phra Khanong,10,10260
54131-286391,people park sukhumvit 77 rd suan luang pople park bangkok 10 1,13.71227,100.607719,"Sukhumvit 77 Rd, Suan Luang,Suan Luang,Pople Park",Bangkok,10,10210
53383-285565,century sukhumvit sukhumvit rd century sukhumvit bangkok 10 10110 th,13.70526,100.601498,"Sukhumvit Rd.,,Prakanong,Century Sukhumvit",Bangkok,10,10110
16866-169626,mega bangna 38 39 bang plea 11 10540 th,13.648437,100.680214,,Bang Plea,11,10540
63997-298702,habito mall 1 habito mall unit 106 phra khanong n watthana 10 ,13.712976,100.600824,,Watthana,10,10110
59295-293528,mega bangna harborland 38 39 moo 6 bangna trat km 8 rd mega bangna harbor,13.645261,100.678158,"38,39, Moo 6, Bangna-Trat km 8 Rd.,Bang Keaw,Mega-Bangna Harborland",Bang Phli,11,10540
52817-283108,mega bangna 2 38 39 moo 6 bangna trat km 8 road bang mega bangna,13.647721,100.68213,"38,39 Moo 6 Bangna-Trat km 8 Road, Bang,Bang Phli,Mega Bangna2",Samut Prakarn,11,10540
48239-254286,jas urban srinakarin no 788 moo 5 srinakarin road bangkok 11 10270 th,13.635266,100.632146,,Bangkok,11,10270
15495-157924,the nine neighborhood center rama 9 road saunlaung 10 10250 th,13.741056,100.625204,,Saunlaung,10,10250
54072-286315,the park the park 217 krungthepkreetha road the park bangko,13.747705,100.662497,"The Park, 217 , Krungthepkreetha road,,Bangkapi,ThePark",Bangkok,10,10240
26231-243905,samitivej srinakarin hospital srinakarin suanluang 10 10250 th,13.748929,100.63855,,Suanluang,10,10250
63198-297844,home pro rama 9 903 rama ix rd suan luang bangkok 10 10250 th,13.742722,100.613886,,Bangkok,10,10250
66147-300652,market place krungthep kreetha srinagarindra rom klao rd hua mak 10 10240 th,13.749759,100.667481,,Hua Mak,10,10240
66161-300650,ramkhamhaeng hospital ramkhamhaeng rd hua mak 10 10240 th,13.758099,100.636692,,Hua Mak,10,10240
25906-242707,a link square 44 soi sukhumvit 71 ramkhamhaeng rd a link bangkok,13.742985,100.600958,"44 Soi Sukhumvit 71,Ramkhamhaeng rd.,Saunluang,A Link",Bangkok,10,10250
1959-143984,lotus srinakarin samut prakarn lotus srinakarin no 9 muang 11 10270 th,13.620505,100.620845,,Muang,11,10270
18294-188424,the mall 3 ramkhamhaeng 1909 the mall shopping center 3 bangkapi 10 10240 ,13.752037,100.609978,,Bangkapi,10,10240
29041-252084,the mall bangkapi 4th floor 3522 4th floor the mall bangkapi ladpr the mall ba,13.765953,100.642618,"3522, 4th Floor The Mall Bangkapi, Ladpr,Klongjang, Bangkapi,The Mall Bangkapi-4th Floor",Bangkok,10,10240
1488-142949,the mall bangkapi main hall 3522 main hall 2nd floor the mall bangkapi bangkap,13.76595,100.641917,"3522, Main Hall 2nd Floor,The Mall Bangkapi, Ladprao Road,The Mall Bangkapi",Bangkapi,10,10240
33741-253264,เดอะมอลล์บางกะปิ 3522 g floor the mall bangkapi ladpra the mall ban,13.766769,100.643078,"3522,G Floor,The Mall Bangkapi, Ladpra,Bangkapi,The Mall Bangkapi",Bangkok,10,10240
32668-137246,m theatre new petchburi road 2884 2 huay kwang 10 10320 th,13.743926,100.587689,,Huay Kwang,10,10320
60389-294635,robinson ladkrabang lat krabang road robinson ladkrabang lat krabang d,13.719343,100.725957,"Lat Krabang Road,Lat krabang Sub-district,Robinson Ladkrabang",Lat Krabang District,10,10520
25508-241152,market village suvarnabhumi 99 28 moo 1 rachathewa market village suvarnabhumi,13.632422,100.711366,"99/28 Moo1 Rachathewa,Bangplee,Market Village Suvarnabhumi",Samutprakarn,11,10540
1478-142236,vejthani hospital vejthani hospital no 1 bangkapi 10 10240 th,13.771584,100.636112,,Bangkapi,10,10240
52772-282791,att u park suvarnabhumi bangna trad road km 12 rachatawa att u park kingka,13.632753,100.714435,"Bangna-Trad Road km. 12,Rachatawa,Bang Phli,Att U Park Kingkaew",Samut Prakarn,11,10540
21807-215328,paseo mall ladkrabang 318 5 ladkrabang rd ladgrabang bangkok 10 10520 th,13.721158,100.728382,,Bangkok,10,10520
13180-154211,pure place sammakorn bangkok pure place ramkamheang 110 pure place sammakom mal,13.776093,100.673635,"Pure Place Ramkamheang 110,unit B110, B111, 1F, Ramkamheang road,Pure Place Sammakom Mall",Saphansung,10,10240
57227-291278,market place sukhapiban 3 43 45 47 49 59 61 market place sukhapiban 3 saphan,13.775707,100.669068,"43,45,47,49,59,61,Ramkhamhaeng Rd.,Market Place Sukhapiban3",Saphan Sung,10,10240
19711-188452,paseo town ramkhamhaeng c 101 c 201 ramkhamhaeng rd bangkok 10 10240 th,13.774248,100.667922,,Bangkok,10,10240
20367-205084,amorini 1 suansiam rd kannayao kannayao amorini boutique l,13.814161,100.687601,,Bangkok,10,10230
31170-133731,siam future nawamin 13 41 navamin town center klongklum 10 10240 th,13.811177,100.650356,,Klongklum,10,10240
29993-256326,happy avenue ladprao 101 787 101 soi ladprao 101 ladprao rd happy avenue la,13.788046,100.628882,"787/101 Soi Ladprao 101  Ladprao Rd.,Klong Chao Khun Singha, Wangthonglang,Happy Avenue Ladprao 101",Bangkok,10,10310
30622-299178,fashion island island moo 7 ramindra road khannayao khan na ya 10,13.825288,100.677761,,Khan Na Ya,10,10230
16681-168584,the promenade 587 589 1st floor the promenade kannayao 10 10320 ,13.82657,100.676375,,Kannayao,10,10320
26764-245184,fashion island 2nd floor 5 5 6 fashion island fashion island 2nd floor bang,13.826639,100.679359,"5/5-6, Fashion Island,Khannayao, Khannayao,Fashion Island-2nd floor",Bangkok,10,10230
28840-251144,lotus sukhapiban 1 629 1 nawamintr road nuanchan bangkok 10 10230 th,13.825034,100.658739,,Bangkok,10,10230
59694-293962,fashion island harborland 587 589 589 7 9 3rd floor fashion is harborland fa,13.826956,100.678973,"587,589, 589/7-9, 3rd Floor,  Fashion Is,Khan Na Yao,Harborland Fashion Island",Khan Na Yao,10,10230
66085-300541,boonthavorn kaset nawamin prasertmanukitch rd bueng kum 10 10230 th,13.820899,100.633684,,Bueng Kum,10,10230
2046-141768,cdc crytal design center room no z 2 143 bangkapi 10 1,13.803327,100.618112,,Bangkapi,10,10240
17707-182486,the scene town in town sriwara road wana thong lang bangkapi 10 10310 th,13.772451,100.609463,,Bangkapi,10,10310
29995-256329,central east ville fashion zone praditmanootham road central east ville fashion ga,13.802804,100.614541,"Praditmanootham Road,Lardprao Lardprao,Central East Ville - Fashion Galleria",Bangkok,10,10230
64890-299121,esso pradit manutham ib pradit manutham road nawamin bueng kum 10 10230 th,13.819233,100.62569,,Bueng Kum,10,10230
32102-130344,the crystal 64 98 99 lardprao 10 10230 th,13.8112,100.618986,,Lardprao,10,10230
29996-256330,central east ville think spaze praditmanootham road central east ville think spac,13.804642,100.614618,"Praditmanootham Road,Lardprao,Lardprao,Central East Ville-Think Space",Bangkok,10,10230
20366-205085,the walk kaset nawamintra 505 507 509 511 511 1 511 2 bangkok 10 10230 th,13.827058,100.627556,,Bangkok,10,10230
54043-286297,at united ladprao 36 32 lat phrao rd wang thonglang toyota at united,13.789866,100.602241,"36/32 Lat Phrao Rd, Wang Thonglang,Wang Thonglang,Toyota At United Ladprao",Bangkok,10,10310
31556-115744,phar max 275 1 rst floor wangthonglang 10 10310 th,13.765282,100.598178,,Wangthonglang,10,10310
65729-299194,jas green village kubon kubon road bang chan sub district bangkok 10 10510,13.856601,100.680316,,Bangkok,10,10510
3155-145084,sf nawamin city avenue nawamin city avenue unit a 108 ladprao 10 10230 th,13.833997,100.610854,,Ladprao,10,10230
21878-215724,plearnary mall watcharapol watcharapol rd tha rang bangkok 10 10220 th,13.858367,100.645017,,Bangkok,10,10220
47521-249024,ease park ease park no 248 ramindra road bangkok 10 10220 th,13.85624,100.629078,,Bangkok,10,10220
16540-168264,bangkok plaza bkh 2 2 bangkok hospital bangkok plaz bldg wangtonglang ,13.750006,100.583737,,Wangtonglang,10,10310
53428-285588,chapter one eco condo pracha uthit rd wang thonglang chapter one eco con,13.772038,100.579866,"Pracha Uthit Rd, Wang Thonglang,Huaykwang,Chapter One Eco Condo - Huaikwang",Bangkok,10,10310
31004-102326,bangkok hospital 2 bangkok hospital wangtonglang 10 10310 th,13.749164,100.583492,,Wangtonglang,10,10310
22405-214064,the jas wanghin the jas wanghin 728 1 building c bangkok 10 10230 ,13.823716,100.591815,,Bangkok,10,10230
55601-289467,piyavate hospital g fl 998 rim klong samsen rd piyavate hospital hua,13.75346,100.579869,"G fl. ,998 Rim Klong Samsen Rd.,,Bangkapi,Piyavate Hospital",Huai Khwang,10,10310
49617-269864,show dc jaturatid road bangkapi show dc bangkok 10 10310 t,13.75054,100.572104,"Jaturatid Road,Bangkapi,Huai Khwang,Show DC",Bangkok,10,10310
21432-211884,praram 9 hospital 99 soi praram 9 hospital rama ix road bangkok 10 1,13.752753,100.57076,,Bangkok,10,10320
26227-243904,u place rama ix huaykwang 10 10310 th,13.756847,100.567343,,Huaykwang,10,10310
51670-278944,g tower 33 4 rama 9 rd huaykwang g tower bangkok 10 10310 ,13.757136,100.565585,"33/4 Rama 9 Rd., Huaykwang,Huaykwang,G Tower",Bangkok,10,10310
49914-271624,fortune town 1 ratchadaphisek rd bangkok 10 10400 th,13.757671,100.564699,,Bangkok,10,10400
57220-291274,central plaza rama 9 5th floor 9 9 5th fl unit 514 515 central rama 9 central pla,13.757895,100.566029,"9/9,5th fl. unit 514,515 Central Rama9,,Phra Ram9 rd, Huai Khwang,Central Plaza Rama9-5th floor",Huai Khwang,10,10310
16387-163825,central rama 9 9 9 1st floor unit no 115 central rama 9 huay kwan,13.75795,100.565772,"9/9, 1st Floor (unit no. 115),Central Rama 9, Phra Ram 9 Road,Central Rama 9",Huay Kwang,10,10320
33764-100862,rca 23 49 huaykwang 10 10320 th,13.747255,100.580225,,Huaykwang,10,10320
48285-262144,the ninth towers 33 4 rama 9 road the ninth towers bangkok 10 10310,13.758908,100.567959,"33/4 Rama 9 road,,Huaykwang, Huaykwang,The Ninth Towers",Bangkok,10,10310
57078-291087,aia capital center 89 aia capital center 1st fl unit 103 aia capital ,13.764693,100.568297,"89 AIA Capital Center,1st Fl. Unit 103,112 Ratchadapisek Rd.,,AIA Capital Center",Din Daeng,10,10400
13058-155768,supreme plaza bangkok supreme samsen mall no 1024 supreme samsen plaza d,13.789756,100.515231,"Supreme Samsen Mall, No. 1024,Samsen road,Supreme Samsen Plaza",Dusit,10,10300
57784-291908,market place dusit market place dusit market place dusit dusit 10 103,13.778876,100.507846,"Market Place Dusit,Wachira Phayaban,Market Place Dusit",Dusit,10,10300
56638-290536,gateway bangsue pracha rat sai 2 rd gateway bangsue bang sue 10 10,13.806145,100.523967,"Pracha Rat Sai2 Rd.,Bang Sue,Gateway Bangsue",Bang Sue,10,10310
62970-297569,tipco tower 118 1 tipco tower rama vi road bangkok 10 10400 th,13.788175,100.535645,,Bangkok,10,10400
15610-163350,ramathibodi hospital ramathibodi hospital 270 1st floor thepparat build,13.768668,100.52812,"Ramathibodi Hospital  270, 1st floor,Somdej Pra Thep Building, Rama 6 Road,Thepparat Building - Rama Hospital",Ratchathewi,10,10400
22393-220684,scg head office 3 headquaters 1 siam cement road bangsue bangkok 10 ,13.805153,100.537671,,Bangkok,10,10800
50911-276527,pearl bangkok 1177 pahonyotin road samsen nai pearl bangkok bang,13.777928,100.543555,"1177 Pahonyotin road Samsen Nai,Phayathai,Pearl Bangkok",Bangkok,10,10400
33738-107023,sf phaholyothin 356 unit 101 la villa phayathai 10 10300 th,13.779797,100.544944,,Phayathai,10,10300
53064-281374,ari hills phaholyothin road samsen nai ari hills bangkok 10 ,13.784698,100.546703,"Phaholyothin Road, Samsen Nai,Phayathai,Ari Hills",Bangkok,10,10400
25570-241248,phyathai 2 hospital 943 phaholyothin road bangkok 10 10400 th,13.770529,100.540974,,Bangkok,10,10400
63049-297673,rajavithi hospital 2 phayathai rd thung phaya thai bangkok 10 10400 t,13.76527,100.536768,,Bangkok,10,10400
52792-282946,paolo hospital phaholyothin 670 1 phahonyothin rd samsen nai paolo hospital ph,13.792173,100.549452,"670/1 Phahonyothin Rd, Samsen Nai,,Phaya Thai,,Paolo Hospital Phaholyothin",Bangkok,10,10400
62089-296668,victory hub ratchawithi rd ratchathewi bangkok 10 bangkok 10 1,13.764549,100.539387,,Bangkok,10,10400
55684-289539,phaya 5 15 phayathai rd phaya ratchathewi 10 10400 th,13.762676,100.53727,"5/15 Phayathai Rd,,Phaya Thai,Phaya",Ratchathewi,10,10400
57876-292010,mrt chatuchak park exit 2 and 3 mrt chatuchak park mrt chatuchak park chatuchak 10,13.803352,100.553713,"MRT Chatuchak Park,,Chatuchak,,MRT Chatuchak Park",Chatuchak,10,10900
33707-256557,ปิ่น เกล้า 7 318 1st floor central plaza pinklao central plaz,13.777126,100.476196,"7/318, 1st Floor Central Plaza Pinklao,Barom Ratchonni Road,Central Plaza Pinklao",Bangkok Noi,10,10700
61916-296425,central pinklao cds 3rd fl 7 318 borommaratchachonnani road bangkok 10 10700 ,13.777762,100.4757,,Bangkok,10,10700
55427-289297,b 2 s central pinklao 7 1 5th floor central plaza pinklao b 2 s central ,13.777654,100.475281,"7/1, 5th Floor, Central Plaza Pinklao,, Borommaratchachonnani Road, Arun Amari,B2S Central Pinklao",Bangkok Noi,10,10700
24081-232246,sun towers 123 vibhavadi rangsit rd bangkok 10 10900 th,13.808174,100.559026,,Bangkok,10,10900
58148-292274,tst tower 21 tst tower viphavadi rangsit rd tst tower chatuc,13.80795,100.559162,"21,TST Tower, Viphavadi-Rangsit Rd,,Chomphon,TST Tower",Chatuchak,10,10900
15289-156384,central chiangrai no 163 163 t k 06 sto 102 muang chiangrai 57 57000,19.88624,99.83354,,Muang Chiangrai,57,57000
15337-156229,the circle ratchapruk bangkok the circle ratchapruk no 39 the circle ratchapruk ,13.767303,100.443413,"The Circle Ratchapruk, No. 39,Unit R2 & R4, Moo.13, Ratchapruk road,The Circle Ratchapruk",Talingchan,10,10170
26449-236807,food villa food villa 77 4 ratchaphruek road bangkok 10 10170,13.764465,100.443695,,Bangkok,10,10170
55683-289541,susco ratchaphruek ratchaphruek rd susco ratchaphruek taling chan 10 ,13.76203,100.445292,"Ratchaphruek Rd,,Bang Ramat,Susco Ratchaphruek",Taling Chan,10,10170
58396-292575,shell kanchanaphisek eng kanchanaphisek road shell kanchanaphisek talin,13.766258,100.407762,"Eng - Kanchanaphisek Road,,Bang Ramat,Shell Kanchanaphisek",Taling Chan,10,10170
24264-236806,the paseo park kanchanaphisek the paseo park 8 14 kanchanaphisek road bangkok 10,13.76646,100.406391,,Bangkok,10,10170
22328-202165,the crystal ratchapruek ratchapruek road bangkanun bangkruay the crystal r,13.810243,100.448996,,Nonthaburi,12,11130
65657-300136,caltex borom inbound borommaratchachonnani rd sala thammasop 10 10170 t,13.784152,100.401491,,Sala Thammasop,10,10170
16496-171973,the walk ratchapruek 189 the walk ratchapruek bang kruai 12 11130 th,13.821079,100.449769,,Bang Kruai,12,11130
32359-136499,the mall bangkae 275 g zone fashion hall 1 bangkae 10 10160 th,13.713811,100.408296,,Bangkae,10,10160
2037-136505,the mall tha phra main hall the mall tha phra no 99 thonburi 10 10600 th,13.713882,100.480478,,Thonburi,10,10600
53627-282789,boonthavorn pinklao moo 11 pinklao nakornchaisri road sala boonthavorn,13.786184,100.372203,"Moo 11 Pinklao-Nakornchaisri Road, Sala,Thawi Watthana,Boonthavorn Pinklao",Bangkok,10,10170
24235-220827,the x place the x place no 60 kanchanaphisek road bangkok 10 1,13.692371,100.408065,,Bangkok,10,10160
50101-272644,cw tower 90 ratchadapisek road bangkok 10 10310 th,13.769616,100.573593,,Bangkok,10,10310
26559-244388,the street 139 ratchadapisek rd the street bangkok 10 10400 t,13.770734,100.572397,"139 Ratchadapisek Rd.,DinDaeng, DinDaeng,The Street",Bangkok,10,10400
33742-95037,muang thai phatra unit p 230 2 flr muang thai phatra complex huaykwa,13.78715,100.57472,,Huaykwang,10,10320
56422-290314,mrt thailand cultural centre ratxhadaphisek rd mrt thailand cultural centre din,13.767089,100.570794,"Ratxhadaphisek rd.,Din Daeng,MRT Thailand Cultural Centre",Din Daeng,10,10400
31445-107044,siam future esplanade 99 unit g 04 esplanade huaykwang 10 10310 th,13.76604,100.57002,,Huaykwang,10,10310
1473-136503,central chaengwattana chaengwattana rd bangkok 12 th,13.904169,100.527706,,Bangkok,12,
58522-292723,commu no 5 5 53 54 commu no 5 commu no 5 pak kret 12 11120 th,13.902812,100.533655,"5/53-54, Commu no. 5,Chaeng Watthana Rd, M.3,Khlong Klua,Commu No 5",Pak Kret,12,11120
33737-87883,nichada thani 39 514 pakkred 12 11120 th,13.892462,100.525011,,Pakkred,12,11120
20060-202665,bee hive 50 1211 moo 9 nonthaburi 10 11120 th,13.910715,100.53942,,Nonthaburi,10,11120
30714-101101,impact challenger impact chalenger pakkred 10 11120 th,13.913513,100.547696,,Pakkred,10,11120
63201-297842,caltex tiwanon tiwanon road bang phut sub district pak kret distr,13.925977,100.525324,,Pak Kret District,12,11120
33746-96051,impact 99 pakkred 12 11120 th,13.914854,100.548379,,Pakkred,12,11120
57226-291279,cosmo bazaar cosmo bazaar building m 3 popular 3 rd cosmo bazaa,13.913214,100.551953,"Cosmo Bazaar Building, M3, Popular3 rd,,Bannmai,Cosmo Bazaar",Pak Kret,12,11120
33755-99308,sport city 20 262 4 sport city pakkred 12 11120 th,13.880354,100.550627,"20/262-4,Moo 9 Prachachean Road,Sport City",Pakkred,12,11120
61303-295737,restn go tiwanon tiwanon road banmai pak kret nonthabu nnthaburi 12,13.937486,100.539991,,Nnthaburi,12,11120
28737-250875,robinson srisamarn srisamarn rd robinson srisamarn nonthaburi 12 1112,13.939823,100.553705,"Srisamarn rd.,BaanMai, Pakkred,Robinson Srisamarn",Nonthaburi,12,11120
31107-104476,baan beyond rattanathibeth 68 100 1st floor home works muang 12 11000 th,13.865746,100.497817,,Muang,12,11000
3154-296670,the mall ngamwongwan g floor the mall ngamwongwan no 30 39 50 bangkhen 12 11000,13.855964,100.541979,,Bangkhen,12,11000
60170-294182,the mall ngam wongwan 2nd fl the mall ngamwongwan 2nd fl unit op 2 the mall nga,13.854981,100.542248,"The Mall Ngamwongwan 2nd fl., unit OP 2,Ngamwongwan,The Mall NgamWongwan-2nd fl",Bang Khen,12,11000
25904-242706,the rest area at prachachuen prachachuen rd the rest area prachachuen bangkok 1,13.840818,100.533921,"Prachachuen rd.,Bang-Sue,The Rest Area @ Prachachuen",Bangkok,10,
53249-284046,happy avenue donmuang 395 songprapa road happy avenue donmuang bangkok 1,13.925974,100.589497,"395 Songprapa Road.,,Don Muang,Happy Avenue Donmuang",Bangkok,10,10210
20069-202164,the crystal ptt chaiyapruek chaiyapruek road klongpornadum pak kre nonthaburi ,13.924838,100.465258,,Nonthaburi,12,11120
56313-290069,vibhavadi hospital 51 3 ngamwongwan rd vibhavadi hospital chatuchak 1,13.846697,100.562346,"51/3,Ngamwongwan rd,,Lat Yao,Vibhavadi Hospital",Chatuchak,10,10900
27192-246869,kasetsart university 50 ngam wong wan rd kasetsart university bangkok 1,13.84438,100.568876,"50 Ngam Wong Wan Rd,,Ladyaow,Chatuchak,Kasetsart University",Bangkok,10,10900
18776-195209,don muang airport inter 222 don muang 10 10210 th,13.917458,100.601311,,Don Muang,10,10210
54791-288503,donmueang airport inter land 3 f 3rd fl terminal 1 departure 222 donmueang airport ,13.919657,100.602181,"3rd Fl., Terminal 1 Departure,222,Vibhavadi Rangsit Rd,Sanambin,Don Mueung,Donmueang Airport 3F Land",Bangkok,10,10210
54790-288505,donmueang airport inter land 1 f 1st fl terminal 1 arrival 222 donmueang airport 1 ,13.919794,100.602164,"1st.fl,Terminal 1,Arrival, 222,Sanam Bin, Don Mueang,Donmueang Airport 1F Land",Bangkok,10,10210
18775-255865,don mueang airport domestic relo 222 don muang 10 10210 th,13.920516,100.602919,,Don Muang,10,10210
58669-292939,index living mall chaiyapruek index living mall chaiyapruek index living mall ch,13.913554,100.45106,"Index Living Mall Chaiyapruek,Bang Phla,Index Living Mall Chaiyapruek",Pak Kret,12,11120
54300-286574,chic republic ratchaphruek 6 15 moo 2 aomkred chic republic ratchaphruek nont,13.905552,100.45016,"6/15 Moo 2, Aomkred,,Pakkred,Chic Republic Ratchaphruek",Nonthaburi,12,11120
54792-288504,donmueang airport inter air 3 f p 2 3rd fl terminal 1 airside pier 2 222 donmueang air,13.920485,100.604751,"3rd fl,Terminal 1,Airside Pier2, 222,Sanam Bin, Don Mueang,Donmueang Airport3FPier2Air",Bangkok,10,10200
58395-292576,shell ratchaphruek moo 1 shell ratchaphruek pak kret 12 11120 th,13.890917,100.449652,"Moo 1,Tha It,Shell Ratchaphruek",Pak Kret,12,11120
31820-123524,central ramindra 302 1 central ramindra dept room 117 118 bangkhen ,13.871998,100.601577,,Bangkhen,10,10220
47915-260265,rangsit university 52 347 muang ek village paholyothin road rangsit u,13.964679,100.58644,"52/347 Muang-Ek Village Paholyothin Road,Lakhok, Muang,,Rangsit University",Prathumthani,13,12000
32431-134825,siam future ratchayothin 234 2 major avenue ratchayothin chatujak 10 10900 ,13.828184,100.566789,,Chatujak,10,10900
33709-15178,scb 1st floor siam commercial bank siam commercial ban,13.826926,100.566002,"1st Floor Siam Commercial Bank,Building West, Ratchada Road,Siam Commercial Bank Building West",Chatuchak,10,10900
58371-292546,shinawatra tower 3 1010 viphavadi rangsit rd shinawatra tower 3 chatu,13.823219,100.558916,"1010, Viphavadi Rangsit Rd,,Chatuchak,Shinawatra Tower 3",Chatuchak,10,10900
50062-272467,buzz vibhavadi vibhavadi rangsit road bangkok 10 10900 th,13.821435,100.557807,,Bangkok,10,10900
26451-230784,the jas ramintra the jas ramintra 87 1 lat plakhao road bangkok 10 ,13.862183,100.612625,,Bangkok,10,10220
33749-96437,sfx ladprao 1691 6th floor central ladprao chatuchak 10 10900 ,13.817244,100.56169,,Chatuchak,10,10900
33702-295613,central ladprao 1693 2nd floor central plaza ladprao central plaza,13.816374,100.561457,"1693, 2nd Floor Central Plaza Ladprao,Phaholyothin Road,Central Plaza Ladprao",Chatuchak,10,10900
56487-290438,mrt phahon yothin mrt phahon yothin lat phrao rd mrt phahon yothin c,13.813053,100.561032,"MRT Phahon Yothin, Lat Phrao Rd.,Chom Phon,MRT Phahon Yothin",Chatuchak,10,10900
58668-292929,union mall 54 soi ladprao 1 ladprao road union mall chatuchak,13.813053,100.561765,"54 Soi Ladprao 1, Ladprao Road,Kwang Jompol,,Union Mall",Chatuchak,10,10900
49374-267968,b care medical center hospital 26 moo 9 pahonyotin road saimai 10 10220 th,13.943409,100.624307,,Saimai,10,10220
56031-289921,zeer rangsit 99 m 8 phahon yothin rd zeer rangsit lam luk ka 13,13.960874,100.622169,"99, M.8, Phahon Yothin rd.,,Khu Khot,Zeer Rangsit",Lam Luk Ka,13,12130
1477-140950,harbormall laemchabung 4 222 harbormall sriracha 20 20230 th,13.078819,100.920365,"4/222,Moo 10, Sukhumvit Road,Harbormall",Sriracha,20,20230
32038-129624,pacific park sriracha 90 pacific park sriracha unit 119 sriracha 20 2011,13.16808,100.930243,,Sriracha,20,20110
56943-290943,j park sriracha no 1 moo 6 j park sriracha sriracha 20 20110 th,13.154286,100.983334,"No.1, Moo6,Surasak,J-Park Sriracha",Sriracha,20,20110
66543-301122,central sriracha sukhumvit rd si racha 20 20110 th,13.177995,100.931327,,Si Racha,20,20110
23396-229764,samitivej sriracha hospital 8 soi laemket jermjompol road sriracha chonburi 20,13.179285,100.929186,,Chonburi,20,20110
48733-264826,bangkok hospital pattaya 301 moo 6 sukhumvit road km 143 chonburi 20 20150 ,12.954437,100.905768,,Chonburi,20,20150
55675-285763,terminal 21 pattaya pattaya city terminal 21 pattaya chon buri 20 2015,12.950542,100.890057,"Pattaya City,,Bang Lamung,Terminal 21 Pattaya",Chon Buri,20,20150
50094-272708,central marina 78 54 m 9 pattaya 3 road nongprue central pattaya ,12.946038,100.889248,"78/54 M.9 Pattaya 3 Road,Nongprue,Bang Lamung,Central Pattaya Center",Chon Buri,20,20260
48751-264825,the bay pattaya 225 pattaya beach road moo 9 chonburi 20 20150 th,12.943446,100.885064,,Chonburi,20,20150
55682-289581,little walk pattaya sukhumvit road little walk pattaya bang lamung 20 ,12.936167,100.902391,"Sukhumvit road,,Nong Prue,Little Walk Pattaya",Bang Lamung,20,20150
27079-246487,harbormall pattaya klang moo 9 pattaya klang rd habor mall pattaya klang ch,12.93343,100.897372,"Moo. 9 ,Pattaya Klang rd.,Nong-Prue, Banglamung,Habor Mall Pattaya Klang",Chonburi,20,20150
53795-286015,central festival pattaya beachfront unit g 01 101 r no 333 99 moo 9 nongprue chonburi ,12.935532,100.882485,,Chonburi,20,20150
1967-136510,central festival pattaya unit 156 central festival pattaya beach banglamung,12.934813,100.882788,,Banglamung,S,20150
32022-129646,sf pattaya 399 9 room no c 105 2 c 204 banglamung 20 20150 th,12.929698,100.880808,,Banglamung,20,20150
33761-285878,royal garden pattaya g floor 218 banglamung 20 20260 th,12.929597,100.877849,,Banglamung,20,20260
33754-97972,tuk com pattaya 8 banglamung s 20150 th,12.923875,100.878622,,Banglamung,S,20150
62544-297025,robinson bowin highway no 331 chonburi 20 20230 th,13.039862,101.082997,,Chonburi,20,20230
26558-244424,laemthong bangsaen 278 2 longhadbangsan rd laemthong bangsaen chonbur,13.286593,100.925933,"278/2 Longhadbangsan Rd.,Sansuk, Muang,Laemthong Bangsaen",Chonburi,20,20131
1526-135685,central chonburi unit 130 op 111 1 no 55 88 89 1 fl central plaza c,13.337399,100.969223,"Unit # 130, OP111/1, No. 55/88-89, 1 fl,Central Plaza Moo 1, Sukhumvit Rd,Central Plaza Chonburi",Muang,20,20000
51675-278965,samitivej chonburi 888 88 moo 3 bansuan rd bansuan samitivej chonburi,13.344533,100.976075,"888/88 Moo 3 Bansuan Rd. Bansuan,Mueang,Samitivej Chonburi",Bangkok,20,20000
55426-289298,robinson chonburi sukprayun rd robinson chonburi muang 20 20000 th,13.406234,101.041637,"Sukprayun Rd.,Don Huaro,Robinson Chonburi",Muang,20,20000
29561-254287,motorway inbound 2 85 30 32 moo 1 khondin bangpakong chachoengsao 24 ,13.537502,101.009532,,Chachoengsao,24,24130
30726-101017,motorway inbound 85 65 bangpakong 24 24130 th,13.538822,101.008542,,Bangpakong,24,24130
33744-95479,motorway outbound 45 64 5 bangpakong 24 24130 th,13.539717,101.009005,,Bangpakong,24,24130
18046-188445,motorway outbound 2 45 21 25 bangpakong 24 24130 th,13.541552,101.007517,,Bangpakong,24,24130
32183-131672,pas si one shopping destination 554 sukhumvit road nern phra muang rayong 21 21000,12.683456,101.249734,,Muang Rayong,21,21000
25905-242705,central plaza rayong bangna trad sai 36 rd central plaza rayong rayong ,12.696882,101.268378,"Bangna-Trad (Sai36) rd.,,Tha Pradu,Muang,Central Plaza Rayong",Rayong,21,21000
54296-286575,fn outlet chachoengsao siri sothon road lat khwang fn outlet chachoengsao,13.600714,101.020215,"Siri Sothon Road,Lat Khwang,Ban Pho,,FN Outlet Chachoengsao",Chachoengsao,24,24140
59841-293990,central village 98 98 2 moo 5 central village bangplee 11 10540 th,13.638725,100.743397,"98, 98/2 Moo 5,Bangchalong Sub-District,Central Village",Bangplee,11,10540
23817-233151,robinson samutprakarn sukhumvit rd samutprakarn 11 10280 th,13.58423,100.608816,,Samutprakarn,11,10280
23818-233150,robinson chachoengsao na mueng robinson chachoengsao chachoengsao 24 240,13.6672,101.049614,"Na-Mueng,Na-Mueng,Robinson Chachoengsao",Chachoengsao,24,24000
59788-294170,siam premium outlet siam premium outlet siam premium outlet bang sao t,13.694264,100.830801,"Siam Premium Outlet,Bang Sao Thong,Siam Premium Outlet",Bang Sao Thong,11,10540
3152-136561,concourse b airside sap 999 passenger terminal 4th floor suvarnabhumi intl,13.69025,100.754785,"999, Passenger terminal, 4th floor,Suvarnabhumi airport, Moo1,Suvarnabhumi Intl Airport - BKK",Bangphi,11,10540
31109-103519,suvarnabhumi airport 999 passenger terminal 3rd floor suvarnabhumi airp,13.69276,100.750388,"999, Passenger terminal, 3rd Floor,Suvarnabhumi airport, Moo 1,Suvarnabhumi Airport - BKK",Bangphi,11,10540
30773-96577,jungceylon patong 181 unit 1102 2 ground floor zone a 1 kathu 83 831,7.892225,98.298301,,Kathu,83,83150
31987-123584,jungceylon 2 unit 4125 jungceylon phuket 181 jungceylon patong ,7.890467,98.300802,"Unit 4125 Jungceylon Phuket, 181,Ratch-U-Thid,Jungceylon Patong",Kathu,83,83150
49620-270144,banana walk phuket 124 11 taweewong road phuket 83 83150 th,7.892586,98.294559,,Phuket,83,83150
33715-29356,phuket 94 ban thai hotel kratoo 83 83150 th,7.890965,98.293765,"94,Thaveewong Road,Ban Thai Hotel",Kratoo,83,83150
32293-135684,kata center karon phuket kata center muang 83 83100 th,7.826537,98.296795,,Muang,83,83100
55264-289129,central floresta phuket g fl 199 m 4 central floresta phuket g fl mueang 83 830,7.890013,98.365876,"199, M.4,,Wichit,Central Floresta Phuket  G fl",Mueang,83,83000
56961-290944,central floresta phuket 2nd floor no 199 m 4 central floresta phuket 2nd floor muean,7.890903,98.366236,"No.199, M.4,Wichit,Central Floresta Phuket-2nd Floor",Mueang,83,83000
33750-296321,central festival phuket 130 1st floor central phuket central festival phuk,7.892127,98.36694,"130, 1st Floor Central Phuket,Room 151, 151 T,No. 130, 1st Floor,Central Festival Phuket",Muang,83,83000
23182-228364,lotus phuket 104 moo 5 chaloemphrakiat ro 9 amphoe phuket 83 83,7.904466,98.368844,,Phuket,83,83000
49018-266307,homepro village phuket chalong 61 10 moo 10 chalong phuket 83 83130 th,7.825111,98.339145,,Phuket,83,83130
48536-263584,phuket airport landside mai khao thalang phuket airport landside phuket 83,8.104412,98.305573,,Phuket,83,83110
32103-131326,ao nang cliff beach krabi ao nang clif beach 328 4 ao nang cliff beach plaza,8.032447,98.823558,"Ao Nang Clif Beach, 328/4,Moo 2,Ao Nang Cliff Beach Plaza",Muang Krabi,81,81000
33731-80440,rama 2 128 1st floor central plaza rama 2 central rama ii,13.66254,100.438191,"128, 1st Floor Central Plaza Rama 2,Moo 6 Rama 2 Road,Central Rama II",Bangkhuntien,10,10150
53427-285587,central rama 2 3rd fl central plaza rama 2 moo 6 rama 2 road central ram,13.663291,100.437663,"Central Plaza Rama 2, Moo 6, Rama 2 Road,Bang Khun Thian,Central Rama 2-3rd fl.",Bangkok,10,10150
48634-259668,index living mall rama 2 120 1 rama 2 road index living malll rama 2 bangko,13.665919,100.444269,"120/1 Rama 2 Road,,Samaedam, Bamgkhuntian,,Index Living Malll Rama 2",Bangkok,10,10150
21111-209424,victoria garden 39 moo 4 victoria garden unit no c 101 bangkok 10 ,13.707471,100.375235,,Bangkok,10,10160
63210-297843,home pro suksawat 226 moo 8 tambon bang phueng phra pradaeng distric,13.652966,100.521043,,Phra Pradaeng District,11,10130
54150-286388,central rama 3 6 fl 79 6th fl central plaza rama 3 central plaza rama ,13.698002,100.537256,"79,6th fl. Central Plaza Rama3,Yan Nawa,Central Plaza Rama 3-6th fl.",Bangkok,10,10120
33713-146284,central rama 3 79 1st floor central plaza rama 3 79 1st floor cen,13.69781,100.53803,"79, 1st Floor Central Plaza Rama 3,Sathupradit Road,79, 1st Floor Central Plaza Rama 3",Yannawa,10,10120
17430-181871,int rama 3 982 yannawa 10 10120 th,13.674964,100.544621,,Yannawa,10,10120
33734-83811,chiangmai 2 2 central airport plaza muang 50 50000 th,18.769833,98.975049,,Muang,50,50000
21813-215327,chiangmai airport 60 chiang mai international airport chiang mai 50 ,18.770192,98.968297,,Chiang Mai,50,50200
48161-259669,chiangmai ram complex no 20 5 boonreungrit road chiangmai ram hospital c,18.793341,98.977801,"No. 20/5 Boonreungrit Road,Si Phum Mueang,Chiangmai Ram Hospital",Chiang Mai,50,50200
30887-102551,chiangmai tha pae 418 420 422 muang 50 50300 th,18.787689,98.993574,,Muang,50,50300
33723-58139,chiangmai 110 muang 50 50200 th,18.783848,99.000161,,Muang,50,50200
30791-102083,chiangmai nimmanhemin 43 tall teak plaza muang 50 50200 th,18.797538,98.966748,,Muang,50,50200
21903-216325,maya chiang mai 55 moo 5 huay kaew road chiang mai 50 50000 th,18.802668,98.967252,,Chiang Mai,50,50000
20245-200745,central festival chiang mai 99 moo 4 super highway rd muang chaing mai 50 5000,18.804542,99.018434,,Chaing Mai,50,50000
54073-286316,ruamchok mall 204 moo 6 fa ham ruamchok mall chiangmai 50 50000 ,18.824357,99.011696,"204 Moo 6,Fa Ham,,Mueang,Ruamchok Mall",Chiangmai,50,50000
27916-248931,kad farang chiangmai hod rd chiangmai 50 50230 th,18.701485,98.931619,,Chiangmai,50,50230
50564-275104,jampha shopping mall 179 1 wiengyong jampha shopping mall lamphun 51 51,18.558899,99.039283,"179/1 Wiengyong,Muang,Jampha Shopping Mall",Lamphun,51,51000
18432-188444,central lampang unit no 131 1st floor no 319 muang 52 52100 th,18.281584,99.494342,,Muang,52,52100
30797-100558,future park rangsit 94 future park rangsit future park rangsit thunbur,13.98971,100.617177,"94, Future Park Rangsit,Phaholyothin Road,Future Park Rangsit",Thunburi,13,12130
28738-250876,zpell phaholyothin road zpell pathum thani 13 12130 th,13.989248,100.616723,"Phaholyothin Road,Prachatippathai, Thunburi,ZPELL",Pathum Thani,13,12130
52316-281066,zpell 1st floor 94 phaholyothin road prachatippathai zpell 1st flo,13.988921,100.6176,"94 Phaholyothin Road ,Prachatippathai,Thanyaburi,Zpell -1st Floor",Pathum Thani,13,12190
60453-294716,bangkok university rangsit campus 9 1 moo 5 phaholyothin rd klong 1 bangkok universi,14.040494,100.615548,,", Klongluang, Pathumthani",13,12120
60020-294298,caltex rangsit klong 3 30 moo 2 rangsit nakhon nayok road caltex rangsit ,13.996903,100.670812,"30 Moo 2 Rangsit-Nakhon Nayok Road,Bueng Yitho Sub-district,Caltex Rangsit Klong 3",Thanyaburi District,13,12130
63956-298657,market village rangsit 89 58 moo 4 rangsit nakhon nayok road thanyaburi d,13.999801,100.684743,,Thanyaburi District,13,12130
56130-290067,cherry mall 44 46 moo 7 cherry mall khlong luang 13 12120 th,14.065813,100.646711,"44/46, Moo 7,,Khlong Song,Cherry Mall",Khlong Luang,13,12120
47919-260264,thammasat u rangsit library 99 moo 18 paholyothin road thammasat university ra,14.071608,100.60213,"99 Moo 18 Paholyothin Road,,Klong Luang, Rangsit,,Thammasat University - Rangsit",Prathumthani,13,12121
57222-291280,tuh park tuh park phahonyothin rd tuh park khlong luang 13 ,14.074386,100.61642,"TUH Park, Phahonyothin Rd,,Khlong Nung,TUH Park",Khlong Luang,13,12120
20815-207466,auto mall navanakorn phaholyothin road klong 1 klong luang pathum thani,14.112149,100.618069,,Pathum Thani,13,12120
27326-247165,v market v market no 127 unit d 108 and d 209 v market bang,13.75675,100.798347,"V Market No. 127 unit D108 and D209,ChalongkrungRoad,Lamplathio,Lat Krabang,,V Market",Bangkok,10,10520
33752-97121,hua hin 73 1 hua hin 77 77110 th,12.570661,99.957087,,Hua Hin,77,77110
30941-103081,hua hin market village 234 1 g fl hua hin market village hua hin 77 77110,12.557709,99.959856,,Hua Hin,77,77110
47713-259385,blu port hua hin phetkasem road blu hua hin prachuap khirikhan 77 t,12.548027,99.96234,"Phetkasem Road,Hua Hin,Blu Hua Hin",Prachuap Khirikhan,77,
51613-278946,robinson phetchaburi phet kasem rd robinson phetchaburi phetchaburi 76 ,13.062306,99.945773,"Phet Kasem Rd.,Mueang,Robinson Phetchaburi",Phetchaburi,76,76000
61529-296030,central westgate cds 3rd fl 3rd floor central west gate bang yai 12 11140 th,13.876058,100.412446,,Bang Yai,12,11140
25741-242172,central west gate 1st floor 199 199 1 199 2 1st floor moo 6 central west gate ,13.875211,100.411707,"199,199/1,199/2 1st Floor, Moo 6,Saothonghin, Bangyai,Central West Gate-1st Floor",Nontha Buri,12,11140
25740-242173,central west gate 2nd floor 199 199 1 199 2 2nd floor moo central west gate 2n,13.876216,100.410877,"199,199/1,199/2 2nd Floor, Moo,Saothonghin,Bangyai,Central West Gate-2nd Floor",Nontha Buri,12,11140
63086-297570,the fourth sai 4 phutthamonthon sai 4 road sam phran district 73 73,13.758926,100.329161,,Sam Phran District,73,73220
31878-124152,big c samui gcr 001 big c suprecenter samui koh samui 84 84320,9.544879,100.0395,,Koh Samui,84,84320
21262-204773,central festival samui 209 209 1 209 2 moo 2 bophut koh samui surat thani,9.531651,100.061568,,Surat Thani,84,84140
31909-124465,outlet village khao yai 888 outlet village korat pakchong 30 30130 th,14.65975,101.392842,,Pakchong,30,30130
21832-215326,robinson saraburi moo 7 taling chang muang saraburi saraburi 10 1800,14.540683,100.952118,,Saraburi,10,18000
49285-267764,robinson lopburi phaholyothin rd robinson lopburi lopburi 16 15000 ,14.775289,100.693712,"Phaholyothin Rd.,Muang,Robinson Lopburi",Lopburi,16,15000
31579-113088,tuk com khon kaen 250 1 room gs 26 ground floor muang 40 40000 th,16.429487,102.831075,,Muang,40,40000
6144-297244,central khonkaen central plaza khonkaen 99 99 1 1st floo khon kaen ,16.432002,102.826038,,Khon Kaen,40,40000
26450-240784,wufoo khonkaen wufoo trading center no 567 222 moo 8 khon kaen 40,16.409392,102.816618,,Khon Kaen,40,40000
21254-210349,sermthai complex nakhonsawan road talad sub district maha sarakham ,16.202339,103.276281,,Maha Sarakham,44,44000
31819-120544,big jieng nong khai 304 big jieng room a 30 ground floor muang 43 4300,17.871385,102.743159,,"Muang,",43,43000
18711-194484,tuk com udon tuk com udon muang 41 41000 th,17.409028,102.792689,,Muang,41,41000
17012-169624,central udon thani 277 1 3 271 5 1st floor unit 117 central plaza udo,17.405216,102.799702,"277/1-3, 271/5, 1st floor (unit. 117),Central Udon Thani, Prajaksillapakhom Rd,Central Plaza Udon Thani",Muang Udon Thani,41,41000
19175-188465,ud town ud town 88 muang 41 41000 th,17.399979,102.804266,,Muang,41,41000
